ORBCOMM FM103           
1 40091U 14040F   25102.88503393  .00001519  00000+0  36370-3 0  9999
2 40091  47.0069 326.1765 0002012 330.0478  30.0292 14.58038502554570
ORBCOMM FM114           
1 41179U 15081A   25103.79940659  .00001664  00000+0  39436-3 0  9991
2 41179  47.0019 230.9420 0001251  46.0851 314.0137 14.58099736495120
ORBCOMM FM119           
1 41180U 15081B   25102.82493468  .00001344  00000+0  32619-3 0  9998
2 41180  46.9990 144.8337 0000415 187.3775 172.7104 14.58013431496181
ORBCOMM FM105           
1 41181U 15081C   25103.78773620  .00000589  00000+0  21148-3 0  9991
2 41181  46.9999 138.9902 0001441 355.2417   4.8449 14.45153203491542
ORBCOMM FM110           
1 41182U 15081D   25103.50183978  .00002197  00000+0  51059-3 0  9994
2 41182  47.0008 231.7227 0002718 235.6783 124.3845 14.57955415495082
ORBCOMM FM118           
1 41183U 15081E   25103.82938644  .00002195  00000+0  50900-3 0  9990
2 41183  47.0033 230.6357 0003185 214.4614 145.6065 14.58057430495137
ORBCOMM FM112           
1 41184U 15081F   25102.80138019  .00001470  00000+0  35374-3 0  9999
2 41184  46.9978 144.1058 0000606  15.3940 344.6964 14.57965655496121
ORBCOMM FM113           
1 41185U 15081G   25103.18948262  .00001432  00000+0  34522-3 0  9993
2 41185  46.9993 142.5893 0000145  14.8407 345.2482 14.58004995496234
